{"spkid": "20250680", "covariance": {"labels": ["e", "q", "tp", "node", "peri", "i"], "data": [["2.300600351527767E-14", "-2.065505956304365E-14", "-2.504917522542314E-13", "-3.404990479346886E-12", "4.000217963118417E-12", "1.152882918787311E-12"], ["-2.065505956304365E-14", "1.854578381913281E-14", "2.230138363707284E-13", "3.048794960165804E-12", "-3.585200412194322E-12", "-1.034323005457662E-12"], ["-2.504917522542314E-13", "2.230138363707284E-13", "7.403315875940974E-10", "4.458129161758217E-11", "4.022504994930438E-10", "2.209085017749668E-11"], ["-3.404990479346886E-12", "3.048794960165804E-12", "4.458129161758217E-11", "2.846852011596411E-9", "-2.920469687282599E-9", "-4.143894262390195E-10"], ["4.000217963118417E-12", "-3.585200412194322E-12", "4.022504994930438E-10", "-2.920469687282599E-9", "3.301841268387963E-9", "4.663486467398825E-10"], ["1.152882918787311E-12", "-1.034323005457662E-12", "2.209085017749668E-11", "-4.143894262390195E-10", "4.663486467398825E-10", "1.080200236510341E-10"]], "elements": [{"label": "e", "name": "e", "sigma": 1.51677300593324e-07, "title": "eccentricity", "value": ".3646385182491675", "units": null}, {"name": "q", "sigma": 1.36182905752274e-07, "value": ".5674325450177862", "title": "perihelion distance", "units": "au", "label": "q"}, {"title": "time of perihelion passage", "value": "2457154.306953962158", "units": "TDB", "sigma": 2.72090350360702e-05, "name": "tp", "label": "tp"}, {"label": "node", "title": "longitude of the ascending node", "value": "48.13109618878447", "units": "deg", "name": "om", "sigma": 5.33558995013336e-05}, {"name": "w", "sigma": 5.74616504147589e-05, "title": "argument of perihelion", "value": "108.7048225502235", "units": "deg", "label": "peri"}, {"label": "i", "units": "deg", "title": "inclination", "value": "9.44915147713405", "sigma": 1.03932681891229e-05, "name": "i"}], "epoch": "2457106.5"}, "elements": [{"sigma": "1.5184E-7", "name": "e", "title": "eccentricity", "value": ".3645584049175897", "units": null, "label": "e"}, {"value": ".8930008679434684", "title": "semi-major axis", "units": "au", "name": "a", "sigma": "1.9213E-9", "label": "a"}, {"label": "q", "title": "perihelion distance", "value": ".5674498959359745", "units": "au", "sigma": "1.3589E-7", "name": "q"}, {"label": "i", "sigma": "1.0394E-5", "name": "i", "value": "9.44967042071382", "title": "inclination; angle with respect to x-y ecliptic plane", "units": "deg"}, {"label": "node", "units": "deg", "value": "48.04729062852926", "title": "longitude of the ascending node", "name": "om", "sigma": "5.3298E-5"}, {"title": "argument of perihelion", "value": "108.7201683497683", "units": "deg", "sigma": "5.7514E-5", "name": "w", "label": "peri"}, {"title": "mean anomaly", "value": "45.54618739357978", "units": "deg", "sigma": "3.0401E-5", "name": "ma", "label": "M"}, {"units": "TDB", "title": "time of perihelion passage", "value": "2461161.503486878935", "name": "tp", "sigma": "2.6033E-5", "label": "tp"}, {"units": "d", "title": "sidereal orbital period", "value": "308.2309525113432", "name": "per", "sigma": "9.9476E-7", "label": "period"}, {"units": "deg/d", "value": "1.167955382374363", "title": "mean motion", "sigma": "3.7694E-9", "name": "n", "label": "n"}, {"label": "Q", "units": "au", "title": "aphelion distance", "value": "1.218551839950963", "sigma": "2.6218E-9", "name": "ad"}], "epoch": "2461200.5"}